start=new Date('2023-05-16T00:00:00.000Z').valueOf();
sats=[{"SEMIMAJOR_AXIS":"6917.860","RCS_SIZE":"LARGE","MEAN_MOTION_DOT":"0.00000699","OBJECT_ID":"2022-114AB","REV_AT_EPOCH":"3761","EPOCH":"2023-05-15T14:32:14.325504","OBJECT_NAME":"STARLINK-4769","MEAN_ANOMALY":"265.0405","GP_ID":"231926112","SITE":"AFETR","TIME_SYSTEM":"UTC","TLE_LINE2":"2 53843  53.2164 233.9468 0001161  95.0720 265.0405 15.08846559 37613","EPHEMERIS_TYPE":"0","DECAY_DATE":null,"LAUNCH_DATE":"2022-09-19","APOAPSIS":"540.529","MEAN_ELEMENT_THEORY":"SGP4","ELEMENT_SET_NO":"999","MEAN_MOTION_DDOT":"0.0000000000000","TLE_LINE1":"1 53843U 22114AB  23135.60572136  .00000699  00000-0  61974-4 0  9992","REF_FRAME":"TEME","COUNTRY_CODE":"US","BSTAR":"0.00006197400000","FILE":"3908892","NORAD_CAT_ID":"53843","CENTER_NAME":"EARTH","OBJECT_TYPE":"PAYLOAD","ECCENTRICITY":"0.00011610","RA_OF_ASC_NODE":"233.9468","INCLINATION":"53.2164","ARG_OF_PERICENTER":"95.0720","CLASSIFICATION_TYPE":"U","PERIOD":"95.437","MEAN_MOTION":"15.08846559","PERIAPSIS":"538.922"},{"APOAPSIS":"540.507","MEAN_ELEMENT_THEORY":"SGP4","ELEMENT_SET_NO":"999","LAUNCH_DATE":"2022-09-19","DECAY_DATE":null,"REF_FRAME":"TEME","MEAN_MOTION_DDOT":"0.0000000000000","TLE_LINE1":"1 53844U 22114AC  23135.58730179  .00000470  00000-0  47619-4 0  9990","NORAD_CAT_ID":"53844","CENTER_NAME":"EARTH","COUNTRY_CODE":"US","BSTAR":"0.00004761900000","FILE":"3908892","CLASSIFICATION_TYPE":"U","PERIOD":"95.438","MEAN_MOTION":"15.08839978","PERIAPSIS":"538.984","OBJECT_TYPE":"PAYLOAD","RA_OF_ASC_NODE":"233.8344","INCLINATION":"53.2162","ECCENTRICITY":"0.00011010","ARG_OF_PERICENTER":"98.5984","REV_AT_EPOCH":"3761","SEMIMAJOR_AXIS":"6917.880","RCS_SIZE":"LARGE","MEAN_MOTION_DOT":"0.00000470","OBJECT_ID":"2022-114AC","OBJECT_NAME":"STARLINK-4745","MEAN_ANOMALY":"261.5133","EPOCH":"2023-05-15T14:05:42.874656","GP_ID":"231926362","SITE":"AFETR","TIME_SYSTEM":"UTC","TLE_LINE2":"2 53844  53.2162 233.8344 0001101  98.5984 261.5133 15.08839978 37614","EPHEMERIS_TYPE":"0"},{"MEAN_MOTION_DOT":"0.00000273","RCS_SIZE":"LARGE","SEMIMAJOR_AXIS":"6917.860","OBJECT_ID":"2022-114AD","REV_AT_EPOCH":"3762","EPOCH":"2023-05-15T15:57:00.885312","OBJECT_NAME":"STARLINK-4753","MEAN_ANOMALY":"261.8136","SITE":"AFETR","GP_ID":"231927113","TLE_LINE2":"2 53845  53.2164 233.6229 0000895  98.2958 261.8136 15.08846802 37625","TIME_SYSTEM":"UTC","EPHEMERIS_TYPE":"0","DECAY_DATE":null,"LAUNCH_DATE":"2022-09-19","MEAN_ELEMENT_THEORY":"SGP4","APOAPSIS":"540.344","ELEMENT_SET_NO":"999","TLE_LINE1":"1 53845U 22114AD  23135.66459358  .00000273  00000-0  35211-4 0  9993","MEAN_MOTION_DDOT":"0.0000000000000","REF_FRAME":"TEME","BSTAR":"0.00003521100000","COUNTRY_CODE":"US","FILE":"3908892","CENTER_NAME":"EARTH","NORAD_CAT_ID":"53845","OBJECT_TYPE":"PAYLOAD","ARG_OF_PERICENTER":"98.2958","RA_OF_ASC_NODE":"233.6229","ECCENTRICITY":"0.00008950","INCLINATION":"53.2164","PERIOD":"95.437","CLASSIFICATION_TYPE":"U","PERIAPSIS":"539.105","MEAN_MOTION":"15.08846802"},{"EPOCH":"2023-05-15T15:30:29.052576","OBJECT_NAME":"STARLINK-4746","MEAN_ANOMALY":"264.1825","MEAN_MOTION_DOT":"0.00002546","RCS_SIZE":"LARGE","SEMIMAJOR_AXIS":"6917.870","OBJECT_ID":"2022-114AE","REV_AT_EPOCH":"3762","EPHEMERIS_TYPE":"0","SITE":"AFETR","GP_ID":"231927857","TLE_LINE2":"2 53846  53.2157 233.4918 0001066  95.9288 264.1825 15.08843488 37620","TIME_SYSTEM":"UTC","MEAN_MOTION_DDOT":"0.0000000000000","TLE_LINE1":"1 53846U 22114AE  23135.64616959  .00002546  00000-0  17799-3 0  9999","REF_FRAME":"TEME","LAUNCH_DATE":"2022-09-19","DECAY_DATE":null,"MEAN_ELEMENT_THEORY":"SGP4","APOAPSIS":"540.472","ELEMENT_SET_NO":"999","OBJECT_TYPE":"PAYLOAD","ARG_OF_PERICENTER":"95.9288","INCLINATION":"53.2157","RA_OF_ASC_NODE":"233.4918","ECCENTRICITY":"0.00010660","PERIOD":"95.437","CLASSIFICATION_TYPE":"U","PERIAPSIS":"538.997","MEAN_MOTION":"15.08843488","BSTAR":"0.00017799000000","COUNTRY_CODE":"US","FILE":"3908892","CENTER_NAME":"EARTH","NORAD_CAT_ID":"53846"},{"RA_OF_ASC_NODE":"233.5590","ECCENTRICITY":"0.00008010","INCLINATION":"53.2150","ARG_OF_PERICENTER":"89.3884","OBJECT_TYPE":"PAYLOAD","MEAN_MOTION":"15.08849701","PERIAPSIS":"539.162","CLASSIFICATION_TYPE":"U","PERIOD":"95.437","FILE":"3908892","COUNTRY_CODE":"US","BSTAR":"0.00078231000000","NORAD_CAT_ID":"53847","CENTER_NAME":"EARTH","TLE_LINE1":"1 53847U 22114AF  23135.65722526  .00012188  00000-0  78231-3 0  9990","MEAN_MOTION_DDOT":"0.0000000000000","REF_FRAME":"TEME","DECAY_DATE":null,"LAUNCH_DATE":"2022-09-19","ELEMENT_SET_NO":"999","APOAPSIS":"540.270","MEAN_ELEMENT_THEORY":"SGP4","EPHEMERIS_TYPE":"0","TIME_SYSTEM":"UTC","TLE_LINE2":"2 53847  53.2150 233.5590 0000801  89.3884 270.7200 15.08849701 37620","SITE":"AFETR","GP_ID":"231926613","EPOCH":"2023-05-15T15:46:24.262464","MEAN_ANOMALY":"270.7200","OBJECT_NAME":"STARLINK-4777","OBJECT_ID":"2022-114AF","SEMIMAJOR_AXIS":"6917.851","MEAN_MOTION_DOT":"0.00012188","RCS_SIZE":"LARGE","REV_AT_EPOCH":"3762"},{"REV_AT_EPOCH":"3762","OBJECT_ID":"2022-114AG","SEMIMAJOR_AXIS":"6917.858","RCS_SIZE":"LARGE","MEAN_MOTION_DOT":"0.00000049","MEAN_ANOMALY":"256.4037","OBJECT_NAME":"STARLINK-4780","EPOCH":"2023-05-15T15:19:52.322592","TIME_SYSTEM":"UTC","TLE_LINE2":"2 53848  53.2162 233.4467 0001019 103.7068 256.4037 15.08847219 37624","SITE":"AFETR","GP_ID":"231926863","EPHEMERIS_TYPE":"0","ELEMENT_SET_NO":"999","APOAPSIS":"540.428","MEAN_ELEMENT_THEORY":"SGP4","DECAY_DATE":null,"LAUNCH_DATE":"2022-09-19","REF_FRAME":"TEME","TLE_LINE1":"1 53848U 22114AG  23135.63880003  .00000049  00000-0  21155-4 0  9991","MEAN_MOTION_DDOT":"0.0000000000000","NORAD_CAT_ID":"53848","CENTER_NAME":"EARTH","FILE":"3908892","COUNTRY_CODE":"US","BSTAR":"0.00002115500000","MEAN_MOTION":"15.08847219","PERIAPSIS":"539.018","CLASSIFICATION_TYPE":"U","PERIOD":"95.437","RA_OF_ASC_NODE":"233.4467","ECCENTRICITY":"0.00010190","INCLINATION":"53.2162","ARG_OF_PERICENTER":"103.7068","OBJECT_TYPE":"PAYLOAD"},{"REF_FRAME":"TEME","TLE_LINE1":"1 53849U 22114AH  23135.64985470  .00000108  00000-0  24865-4 0  9994","MEAN_MOTION_DDOT":"0.0000000000000","ELEMENT_SET_NO":"999","MEAN_ELEMENT_THEORY":"SGP4","APOAPSIS":"540.305","DECAY_DATE":null,"LAUNCH_DATE":"2022-09-19","PERIAPSIS":"539.166","MEAN_MOTION":"15.08843269","PERIOD":"95.437","CLASSIFICATION_TYPE":"U","ARG_OF_PERICENTER":"85.0451","RA_OF_ASC_NODE":"233.5132","ECCENTRICITY":"0.00008230","INCLINATION":"53.2165","OBJECT_TYPE":"PAYLOAD","CENTER_NAME":"EARTH","NORAD_CAT_ID":"53849","FILE":"3908892","BSTAR":"0.00002486500000","COUNTRY_CODE":"US","MEAN_ANOMALY":"275.0635","OBJECT_NAME":"STARLINK-4770","EPOCH":"2023-05-15T15:35:47.446080","REV_AT_EPOCH":"3762","OBJECT_ID":"2022-114AH","RCS_SIZE":"LARGE","MEAN_MOTION_DOT":"0.00000108","SEMIMAJOR_AXIS":"6917.870","EPHEMERIS_TYPE":"0","TLE_LINE2":"2 53849  53.2165 233.5132 0000823  85.0451 275.0635 15.08843269 37620","TIME_SYSTEM":"UTC","GP_ID":"231927613","SITE":"AFETR"},{"EPHEMERIS_TYPE":"0","TLE_LINE2":"2 53850  53.2147 233.6753 0000859  73.5081 286.6006 15.08841928 37611","TIME_SYSTEM":"UTC","SITE":"AFETR","GP_ID":"231894799","EPOCH":"2023-05-15T13:28:34.172832","MEAN_ANOMALY":"286.6006","OBJECT_NAME":"STARLINK-4767","OBJECT_ID":"2022-114AJ","RCS_SIZE":"LARGE","MEAN_MOTION_DOT":"0.00001905","SEMIMAJOR_AXIS":"6917.874","REV_AT_EPOCH":"3761","ARG_OF_PERICENTER":"73.5081","RA_OF_ASC_NODE":"233.6753","ECCENTRICITY":"0.00008590","INCLINATION":"53.2147","OBJECT_TYPE":"PAYLOAD","PERIAPSIS":"539.145","MEAN_MOTION":"15.08841928","PERIOD":"95.437","CLASSIFICATION_TYPE":"U","FILE":"3908681","BSTAR":"0.00013775000000","COUNTRY_CODE":"US","CENTER_NAME":"EARTH","NORAD_CAT_ID":"53850","MEAN_MOTION_DDOT":"0.0000000000000","TLE_LINE1":"1 53850U 22114AJ  23135.56150663  .00001905  00000-0  13775-3 0  9998","REF_FRAME":"TEME","DECAY_DATE":null,"LAUNCH_DATE":"2022-09-19","ELEMENT_SET_NO":"999","MEAN_ELEMENT_THEORY":"SGP4","APOAPSIS":"540.334"},{"OBJECT_TYPE":"PAYLOAD","ARG_OF_PERICENTER":"97.4612","ECCENTRICITY":"0.00010660","RA_OF_ASC_NODE":"233.4687","INCLINATION":"53.2156","PERIOD":"95.437","CLASSIFICATION_TYPE":"U","PERIAPSIS":"538.993","MEAN_MOTION":"15.08844792","BSTAR":"0.00020422000000","COUNTRY_CODE":"US","FILE":"3908892","CENTER_NAME":"EARTH","NORAD_CAT_ID":"53851","MEAN_MOTION_DDOT":"0.0000000000000","TLE_LINE1":"1 53851U 22114AK  23135.64248577  .00002964  00000-0  20422-3 0  9993","REF_FRAME":"TEME","DECAY_DATE":null,"LAUNCH_DATE":"2022-09-19","MEAN_ELEMENT_THEORY":"SGP4","APOAPSIS":"540.468","ELEMENT_SET_NO":"999","EPHEMERIS_TYPE":"0","SITE":"AFETR","GP_ID":"231926113","TLE_LINE2":"2 53851  53.2156 233.4687 0001066  97.4612 262.6502 15.08844792 37620","TIME_SYSTEM":"UTC","EPOCH":"2023-05-15T15:25:10.770528","OBJECT_NAME":"STARLINK-4755","MEAN_ANOMALY":"262.6502","RCS_SIZE":"LARGE","MEAN_MOTION_DOT":"0.00002964","SEMIMAJOR_AXIS":"6917.866","OBJECT_ID":"2022-114AK","REV_AT_EPOCH":"3762"},{"GP_ID":"231896301","SITE":"AFETR","TIME_SYSTEM":"UTC","TLE_LINE2":"2 53852  53.2159 229.1570 0001204  93.5590 266.5540 15.08843146 37675","EPHEMERIS_TYPE":"0","SEMIMAJOR_AXIS":"6917.871","MEAN_MOTION_DOT":"0.00000682","RCS_SIZE":"LARGE","OBJECT_ID":"2022-114AL","REV_AT_EPOCH":"3767","EPOCH":"2023-05-15T12:33:38.791296","OBJECT_NAME":"STARLINK-4797","MEAN_ANOMALY":"266.5540","COUNTRY_CODE":"US","BSTAR":"0.00006094700000","FILE":"3908681","NORAD_CAT_ID":"53852","CENTER_NAME":"EARTH","OBJECT_TYPE":"PAYLOAD","RA_OF_ASC_NODE":"229.1570","INCLINATION":"53.2159","ECCENTRICITY":"0.00012040","ARG_OF_PERICENTER":"93.5590","CLASSIFICATION_TYPE":"U","PERIOD":"95.437","MEAN_MOTION":"15.08843146","PERIAPSIS":"538.903","LAUNCH_DATE":"2022-09-19","DECAY_DATE":null,"APOAPSIS":"540.569","MEAN_ELEMENT_THEORY":"SGP4","ELEMENT_SET_NO":"999","TLE_LINE1":"1 53852U 22114AL  23135.52336564  .00000682  00000-0  60947-4 0  9997","MEAN_MOTION_DDOT":"0.0000000000000","REF_FRAME":"TEME"}];
